[
    {
        "CCSDS_OMM_VERS": "3.0",
        "COMMENT": "GENERATED VIA SPACE-TRACK.ORG API",
        "CREATION_DATE": "2025-04-14T03:05:54",
        "ORIGINATOR": "18 SPCS",
        "OBJECT_NAME": "BEIDOU 3M5",
        "OBJECT_ID": "2018-018A",
        "CENTER_NAME": "EARTH",
        "REF_FRAME": "TEME",
        "TIME_SYSTEM": "UTC",
        "MEAN_ELEMENT_THEORY": "SGP4",
        "EPOCH": "2025-04-13T15:17:53.286720",
        "MEAN_MOTION": "1.86231414",
        "ECCENTRICITY": "0.00074570",
        "INCLINATION": "56.2756",
        "RA_OF_ASC_NODE": "77.3533",
        "ARG_OF_PERICENTER": "348.8392",
        "MEAN_ANOMALY": "11.1177",
        "EPHEMERIS_TYPE": "0",
        "CLASSIFICATION_TYPE": "U",
        "NORAD_CAT_ID": "43207",
        "ELEMENT_SET_NO": "999",
        "REV_AT_EPOCH": "4874",
        "BSTAR": "0.00000000000000",
        "MEAN_MOTION_DOT": "-0.00000016",
        "MEAN_MOTION_DDOT": "0.0000000000000",
        "SEMIMAJOR_AXIS": "27906.147",
        "PERIOD": "773.232",
        "APOAPSIS": "21548.822",
        "PERIAPSIS": "21507.203",
        "OBJECT_TYPE": "PAYLOAD",
        "RCS_SIZE": "LARGE",
        "COUNTRY_CODE": "PRC",
        "LAUNCH_DATE": "2018-02-12",
        "SITE": "XSC",
        "DECAY_DATE": null,
        "FILE": "4701263",
        "GP_ID": "285538866",
        "TLE_LINE0": "0 BEIDOU 3M5",
        "TLE_LINE1": "1 43207U 18018A   25103.63742230 -.00000016  00000-0  00000-0 0  9990",
        "TLE_LINE2": "2 43207  56.2756  77.3533 0007457 348.8392  11.1177  1.86231414 48748"
    }
]